[
  {
    "name": "KUIPER-00250",
    "noradId": "67155",
    "line1": "1 67155U 25301Y   26167.82117932  .00000611  00000+0  10921-3 0  9993",
    "line2": "2 67155  51.8997 352.2389 0000666 103.3286 256.7750 14.79931214 28371"
  },
  {
    "name": "KUIPER-00251",
    "noradId": "67156",
    "line1": "1 67156U 25301Z   26168.17228584 -.00003232  00000+0 -39491-3 0  9996",
    "line2": "2 67156  51.9024 338.2513 0000620 203.2865 156.8070 14.79962579 28755"
  },
  {
    "name": "KUIPER-00252",
    "noradId": "67157",
    "line1": "1 67157U 25301AA  26168.16962347  .00001803  00000+0  26551-3 0  9991",
    "line2": "2 67157  51.9011 340.7131 0000734 107.0344 253.0699 14.79930534 28534"
  },
  {
    "name": "KUIPER-00261",
    "noradId": "67158",
    "line1": "1 67158U 25301AB  26168.19260750  .00002061  00000+0  29928-3 0  9992",
    "line2": "2 67158  51.9017 350.6628 0000709  99.5261 260.5781 14.79928701 28399"
  },
  {
    "name": "KUIPER-00265",
    "noradId": "67159",
    "line1": "1 67159U 25301AC  26167.73747461  .00000809  00000+0  13505-3 0  9993",
    "line2": "2 67159  51.9025   7.6469 0000520 106.7334 253.3685 14.79932674 28155"
  },
  {
    "name": "KUIPER-00159",
    "noradId": "67764",
    "line1": "1 67764U 26030A   26168.10442355  .00035911  00000+0  94434-3 0  9993",
    "line2": "2 67764  51.8842  98.7430 0007356  45.5209 314.6378 15.38213894 20386"
  },
  {
    "name": "KUIPER-00160",
    "noradId": "67765",
    "line1": "1 67765U 26030B   26168.10409619  .00027272  00000+0  71139-3 0  9998",
    "line2": "2 67765  51.8816  98.6940 0006834  54.4337 305.7287 15.38607952 20386"
  },
  {
    "name": "KUIPER-00177",
    "noradId": "67766",
    "line1": "1 67766U 26030C   26168.15707742  .00002233  00000+0  32174-3 0  9998",
    "line2": "2 67766  51.9005 133.2776 0000647  81.0493 279.0542 14.79936319 19905"
  },
  {
    "name": "KUIPER-00178",
    "noradId": "67767",
    "line1": "1 67767U 26030D   26167.64754125  .00016065  00000+0  23064-2 0  9994",
    "line2": "2 67767  51.8995 135.4831 0000978 150.7621 209.3394 14.76572575 19833"
  },
  {
    "name": "KUIPER-00180",
    "noradId": "67768",
    "line1": "1 67768U 26030E   26168.19623448  .00001079  00000+0  17056-3 0  9993",
    "line2": "2 67768  51.9009 128.0967 0000811  82.2326 277.8729 14.79927738 19982"
  },
  {
    "name": "KUIPER-00197",
    "noradId": "67769",
    "line1": "1 67769U 26030F   26168.14412851  .00001911  00000+0  30348-3 0  9997",
    "line2": "2 67769  51.8995 108.2737 0002175 110.4342 249.6853 14.76326427 20250"
  },
  {
    "name": "KUIPER-00198",
    "noradId": "67770",
    "line1": "1 67770U 26030G   26168.17054608  .00002437  00000+0  34853-3 0  9993",
    "line2": "2 67770  51.8980 120.7067 0000706  97.6260 262.4782 14.79929660 20080"
  },
  {
    "name": "KUIPER-00199",
    "noradId": "67771",
    "line1": "1 67771U 26030H   26168.10749251  .00030262  00000+0  84664-3 0  9994",
    "line2": "2 67771  51.8807 100.1841 0011690  54.4033 305.8041 15.36340814 20367"
  },
  {
    "name": "KUIPER-00200",
    "noradId": "67772",
    "line1": "1 67772U 26030J   26168.16668980  .00003548  00000+0  24891-3 0  9993",
    "line2": "2 67772  51.8906 107.0871 0004000  62.8243 291.4485 15.07594109  4562"
  },
  {
    "name": "KUIPER-00203",
    "noradId": "67773",
    "line1": "1 67773U 26030K   26168.21920741  .00002203  00000+0  31792-3 0  9991",
    "line2": "2 67773  51.9064 138.0320 0000703  70.3257 289.7781 14.79924737 19845"
  },
  {
    "name": "KUIPER-00205",
    "noradId": "67774",
    "line1": "1 67774U 26030L   26168.16668980  .00011406  00000+0  12470-2 0  9996",
    "line2": "2 67774  51.8986 103.2645 0005502   0.8921 201.6177 14.88220022  3841"
  },
  {
    "name": "KUIPER-00208",
    "noradId": "67775",
    "line1": "1 67775U 26030M   26168.19276302  .00001706  00000+0  27366-3 0  9996",
    "line2": "2 67775  51.8968 129.9119 0007854  35.2825 324.8654 14.76451778 19958"
  },
  {
    "name": "KUIPER-00209",
    "noradId": "67776",
    "line1": "1 67776U 26030N   26168.16245427 -.00000753  00000+0 -69811-4 0  9993",
    "line2": "2 67776  51.8992 128.3340 0000506  44.4105 315.6898 14.79921417 19970"
  },
  {
    "name": "KUIPER-00213",
    "noradId": "67777",
    "line1": "1 67777U 26030P   26168.06387446  .00002559  00000+0  36444-3 0  9990",
    "line2": "2 67777  51.8953 126.2601 0000954  81.3263 278.7807 14.79939495 19993"
  },
  {
    "name": "KUIPER-00214",
    "noradId": "67778",
    "line1": "1 67778U 26030Q   26168.16787492  .00002524  00000+0  35991-3 0  9995",
    "line2": "2 67778  51.8993 123.2988 0000683  73.8087 286.2951 14.79932790 20045"
  },
  {
    "name": "KUIPER-00215",
    "noradId": "67779",
    "line1": "1 67779U 26030R   26168.08374153 -.00005122  00000+0 -70047-3 0  9993",
    "line2": "2 67779  51.8992 110.3820 0000420  87.8371 272.2638 14.76395374 20222"
  },
  {
    "name": "KUIPER-00218",
    "noradId": "67780",
    "line1": "1 67780U 26030S   26168.16668980 -.00025186  00000+0 -32862-2 0  9992",
    "line2": "2 67780  51.8970 125.7174 0000840  96.5422 272.6990 14.79943243  5508"
  },
  {
    "name": "KUIPER-00220",
    "noradId": "67781",
    "line1": "1 67781U 26030T   26168.20457103  .00005098  00000+0  33030-3 0  9998",
    "line2": "2 67781  51.8923 102.9508 0009492  65.2500 294.9462 15.09680154 20339"
  },
  {
    "name": "KUIPER-00222",
    "noradId": "67782",
    "line1": "1 67782U 26030U   26168.13679523  .00002531  00000+0  36071-3 0  9990",
    "line2": "2 67782  51.8982 121.0044 0000678  55.8783 304.2244 14.79947153 20072"
  },
  {
    "name": "KUIPER-00223",
    "noradId": "67783",
    "line1": "1 67783U 26030V   26168.11117781  .00002732  00000+0  38718-3 0  9995",
    "line2": "2 67783  51.9012 113.4045 0001049  91.5803 268.5280 14.79938222 20188"
  },
  {
    "name": "KUIPER-00225",
    "noradId": "67784",
    "line1": "1 67784U 26030W   26168.10576453  .00007503  00000+0  10135-2 0  9993",
    "line2": "2 67784  51.8991 118.5991 0001189  91.8470 268.2629 14.79871920 20105"
  },
  {
    "name": "KUIPER-00226",
    "noradId": "67785",
    "line1": "1 67785U 26030X   26168.14544998 -.00326412  00000+0 -14526-1 0  9999",
    "line2": "2 67785  51.8790 106.9856 0018406  68.1270 292.1665 15.22261228 20276"
  },
  {
    "name": "KUIPER-00259",
    "noradId": "67786",
    "line1": "1 67786U 26030Y   26168.13933017 -.00011775  00000+0 -15196-2 0  9991",
    "line2": "2 67786  51.8971 118.3512 0000084  97.8303 262.2669 14.79895816 20115"
  },
  {
    "name": "KUIPER-00260",
    "noradId": "67787",
    "line1": "1 67787U 26030Z   26168.16668980 -.00007683  00000+0 -97957-3 0  9998",
    "line2": "2 67787  51.9001 115.8220 0001357  94.2947  36.8901 14.79944671  5636"
  },
  {
    "name": "KUIPER-00262",
    "noradId": "67788",
    "line1": "1 67788U 26030AA  26168.10798383  .00002654  00000+0  37626-3 0  9992",
    "line2": "2 67788  51.9004 115.9955 0000567  81.5072 278.5955 14.80020653 20140"
  },
  {
    "name": "KUIPER-00266",
    "noradId": "67789",
    "line1": "1 67789U 26030AB  26168.14474800 -.00004161  00000+0 -51701-3 0  9999",
    "line2": "2 67789  51.8995 113.3352 0003583  94.7120 265.4252 14.79930516 20188"
  },
  {
    "name": "KUIPER-00268",
    "noradId": "67790",
    "line1": "1 67790U 26030AC  26168.11381735  .00002689  00000+0  38127-3 0  9990",
    "line2": "2 67790  51.9043 110.9763 0001097 101.8765 258.2321 14.79967743 20210"
  },
  {
    "name": "KUIPER-00270",
    "noradId": "67791",
    "line1": "1 67791U 26030AD  26168.16668980 -.00040098  00000+0 -29262-2 0  9993",
    "line2": "2 67791  51.8938 101.8130 0009300  35.8435 136.1014 15.03177063  4306"
  },
  {
    "name": "KUIPER-00274",
    "noradId": "67792",
    "line1": "1 67792U 26030AE  26168.13417103  .00009107  00000+0  12202-2 0  9990",
    "line2": "2 67792  51.9009 123.3723 0001643 143.8211 216.2863 14.79994080 20047"
  },
  {
    "name": "KUIPER-00275",
    "noradId": "67793",
    "line1": "1 67793U 26030AF  26168.16668980  .00011444  00000+0  11947-2 0  9997",
    "line2": "2 67793  51.8979 103.4813 0010196  57.3904 248.3610 14.90073277  4927"
  },
  {
    "name": "KUIPER-00276",
    "noradId": "67794",
    "line1": "1 67794U 26030AG  26168.16668980 -.00773909  00000+0 -73677-1 0  9998",
    "line2": "2 67794  51.9044 108.6093 0018050  30.8762  16.6395 14.95465442  4575"
  },
  {
    "name": "KUIPER-00279",
    "noradId": "67795",
    "line1": "1 67795U 26030AH  26168.16668980  .00015427  00000+0  79971-3 0  9996",
    "line2": "2 67795  51.8879 100.1675 0009739  43.4925 123.8166 15.16303642  5776"
  },
  {
    "name": "KUIPER-00131",
    "noradId": "68573",
    "line1": "1 68573U 26072A   26167.81954698  .00001643  00000+0  24446-3 0  9994",
    "line2": "2 68573  51.8988 197.2745 0000430  87.5426 272.5586 14.79928359 11064"
  },
  {
    "name": "KUIPER-00189",
    "noradId": "68574",
    "line1": "1 68574U 26072B   26168.16668980 -.00021047  00000+0 -27410-2 0  9995",
    "line2": "2 68574  51.8964 198.2263 0000852 113.0286 133.0132 14.79924093  5378"
  },
  {
    "name": "KUIPER-00192",
    "noradId": "68575",
    "line1": "1 68575U 26072C   26167.34951794  .00001752  00000+0  25875-3 0  9996",
    "line2": "2 68575  51.8990 196.8521 0000473  80.4355 279.6661 14.79934282 11037"
  },
  {
    "name": "KUIPER-00193",
    "noradId": "68576",
    "line1": "1 68576U 26072D   26168.16668980 -.00060437  00000+0 -74114-2 0  9996",
    "line2": "2 68576  51.9010 182.7144 0001323 157.2166  96.5880 14.82959134  4448"
  },
  {
    "name": "KUIPER-00194",
    "noradId": "68577",
    "line1": "1 68577U 26072E   26167.79120422  .00001575  00000+0  23602-3 0  9992",
    "line2": "2 68577  51.9007 192.4067 0000338 345.9934  14.1019 14.79855678 11139"
  },
  {
    "name": "KUIPER-00229",
    "noradId": "68578",
    "line1": "1 68578U 26072F   26168.16668980 -.00019400  00000+0 -25251-2 0  9990",
    "line2": "2 68578  51.8987 195.7336 0000621 116.9015 114.1628 14.79900344  5481"
  }
]